NORAD_CAT_ID,OBJECT_NAME,OBJECT_TYPE,EPOCH,MEAN_MOTION,ECCENTRICITY,INCLINATION,RA_OF_ASC_NODE,ARG_OF_PERICENTER,MEAN_ANOMALY,BSTAR,MEAN_MOTION_DOT,MEAN_MOTION_DDOT,TLE_LINE0,TLE_LINE1,TLE_LINE2,SEMIMAJOR_AXIS,PERIOD,APOGEE,PERIGEE,DECAYED
49758.0,STARLINK-3194,PAYLOAD,2022-07-22 12:02:49,15.0883411,0.0001519,53.2174,332.6153,51.9579,308.1551,4.6938e-05,4.59e-06,0.0,0 STARLINK-3194,1 49758U 21115AL  22203.50196478  .00000459  00000-0  46938-4 0  9994,2 49758  53.2174 332.6153 0001519  51.9579 308.1551 15.08834110 35464,6917.898,95.438,540.814,538.7130000000002,0.0
49758.0,STARLINK-3194,PAYLOAD,2022-07-23 13:28:59,15.08842821,0.0001573,53.2176,327.8579,48.7921,311.3207,6.0282e-05,6.72e-06,0.0,0 STARLINK-3194,1 49758U 21115AL  22204.56180117  .00000672  00000-0  60282-4 0  9999,2 49758  53.2176 327.8579 0001573  48.7921 311.3207 15.08842821 35629,6917.871999999999,95.437,540.825,538.649,0.0
49758.0,STARLINK-3194,PAYLOAD,2022-07-23 15:04:22,15.08839452,0.0001537,53.2178,327.5602,47.4499,312.6623,8.9739e-05,1.14e-05,0.0,0 STARLINK-3194,1 49758U 21115AL  22204.62804301  .00001140  00000-0  89739-4 0  9993,2 49758  53.2178 327.5602 0001537  47.4499 312.6623 15.08839452 36747,6917.882,95.438,540.81,538.684,0.0
49758.0,STARLINK-3194,PAYLOAD,2022-07-23 18:15:09,15.08838146,0.0001553,53.2183,326.9661,50.0947,310.0182,7.9309e-05,9.74e-06,0.0,0 STARLINK-3194,1 49758U 21115AL  22204.76052423  .00000974  00000-0  79309-4 0  9994,2 49758  53.2183 326.9661 0001553  50.0947 310.0182 15.08838146 35657,6917.886,95.438,540.825,538.677,0.0
49758.0,STARLINK-3194,PAYLOAD,2022-07-24 00:36:42,15.08828345,0.0001544,53.2175,325.7763,45.1038,315.008,-2.8308e-05,-7.38e-06,0.0,0 STARLINK-3194,1 49758U 21115AL  22205.02549434 -.00000738  00000-0 -28308-4 0  9990,2 49758  53.2175 325.7763 0001544  45.1038 315.0080 15.08828345 36804,6917.916,95.438,540.849,538.7130000000002,0.0
49758.0,STARLINK-3194,PAYLOAD,2022-07-24 13:19:47,15.08833226,0.000136,53.2181,323.3963,53.9676,306.1442,1.4437e-05,-5.8e-07,0.0,0 STARLINK-3194,1 49758U 21115AL  22205.55541351 -.00000058  00000-0  14437-4 0  9990,2 49758  53.2181 323.3963 0001360  53.9676 306.1442 15.08833226 35770,6917.901,95.438,540.707,538.825,0.0
49758.0,STARLINK-3194,PAYLOAD,2022-07-24 18:05:57,15.08834952,0.0001496,53.2179,322.5055,45.8365,314.275,4.1702e-05,3.76e-06,0.0,0 STARLINK-3194,1 49758U 21115AL  22205.75413317  .00000376  00000-0  41702-4 0  9999,2 49758  53.2179 322.5055 0001496  45.8365 314.2750 15.08834952 35808,6917.896,95.438,540.7959999999998,538.726,0.0
49758.0,STARLINK-3194,PAYLOAD,2022-07-25 08:24:25,15.08830029,0.0001546,53.2187,319.8302,53.5428,306.5707,2.1103e-05,4.8e-07,0.0,0 STARLINK-3194,1 49758U 21115AL  22206.35029798  .00000048  00000-0  21103-4 0  9991,2 49758  53.2187 319.8302 0001546  53.5428 306.5707 15.08830029 35899,6917.911,95.438,540.845,538.706,0.0
49758.0,STARLINK-3194,PAYLOAD,2022-07-25 16:21:21,15.08826964,0.0001575,53.2183,318.3429,50.2199,309.8931,-1.3205e-05,-4.98e-06,0.0,0 STARLINK-3194,1 49758U 21115AL  22206.68150347 -.00000498  00000-0 -13205-4 0  9997,2 49758  53.2183 318.3429 0001575  50.2199 309.8931 15.08826964 37058,6917.92,95.438,540.875,538.696,0.0
49758.0,STARLINK-3194,PAYLOAD,2022-07-26 13:01:22,15.08832354,0.0001591,53.2187,314.4776,51.0008,309.1126,7.3983e-05,8.89e-06,0.0,0 STARLINK-3194,1 49758U 21115AL  22207.54262441  .00000889  00000-0  73983-4 0  9993,2 49758  53.2187 314.4776 0001591  51.0008 309.1126 15.08832354 36070,6917.904,95.438,540.869,538.668,0.0
49758.0,STARLINK-3194,PAYLOAD,2022-07-26 16:12:09,15.08833297,0.0001603,53.2184,313.8827,49.767,310.3462,7.8933e-05,9.68e-06,0.0,0 STARLINK-3194,1 49758U 21115AL  22207.67510436  .00000968  00000-0  78933-4 0  9995,2 49758  53.2184 313.8827 0001603  49.7670 310.3462 15.08833297 37200,6917.901,95.438,540.875,538.6569999999998,0.0
49758.0,STARLINK-3194,PAYLOAD,2022-07-27 12:52:09,15.08839288,0.0001648,53.2178,310.0164,48.51600000000001,311.5974,0.00018168,2.605e-05,0.0,0 STARLINK-3194,1 49758U 21115AL  22208.53622065  .00002605  00000-0  18168-3 0  9996,2 49758  53.2178 310.0164 0001648  48.5160 311.5974 15.08839288 36224,6917.8830000000025,95.438,540.888,538.607,0.0
49758.0,STARLINK-3194,PAYLOAD,2022-07-27 14:27:32,15.08840525,0.0001651,53.2178,309.7191,48.1675,311.9458,0.00019233,2.774e-05,0.0,0 STARLINK-3194,1 49758U 21115AL  22208.60246007  .00002774  00000-0  19233-3 0  9993,2 49758  53.2178 309.7191 0001651  48.1675 311.9458 15.08840525 36238,6917.879,95.438,540.886,538.602,0.0
49758.0,STARLINK-3194,PAYLOAD,2022-07-28 12:42:55,15.08851462,0.0001786999999999,53.2187,305.5569,49.8357,310.2791,0.00021213,3.091e-05,0.0,0 STARLINK-3194,1 49758U 21115AL  22209.52981146  .00003091  00000-0  21213-3 0  9999,2 49758  53.2187 305.5569 0001787  49.8357 310.2791 15.08851462 36375,6917.845,95.437,540.947,538.474,0.0
49758.0,STARLINK-3194,PAYLOAD,2022-07-29 12:33:42,15.08851269,0.0001868,53.2186,301.0975,50.96100000000001,309.1548,5.6547e-05,6.12e-06,0.0,0 STARLINK-3194,1 49758U 21115AL  22210.52340913  .00000612  00000-0  56547-4 0  9997,2 49758  53.2186 301.0975 0001868  50.9610 309.1548 15.08851269 36520,6917.846,95.437,541.003,538.419,0.0
49758.0,STARLINK-3194,PAYLOAD,2022-07-30 12:24:29,15.08842963,0.0001763,53.2179,296.6361,52.527,307.5882,-4.202800000000001e-05,-9.57e-06,0.0,0 STARLINK-3194,1 49758U 21115AL  22211.51701206 -.00000957  00000-0 -42028-4 0  9996,2 49758  53.2179 296.6361 0001763  52.5270 307.5882 15.08842963 36674,6917.871,95.437,540.956,538.5169999999998,0.0
49758.0,STARLINK-3194,PAYLOAD,2022-07-30 15:35:15,15.08850744,0.0001774999999999,53.2177,296.0412,58.1141,302.0024,-0.00015862,-2.812e-05,0.0,0 STARLINK-3194,1 49758U 21115AL  22211.64948914 -.00002812  00000-0 -15862-3 0  9996,2 49758  53.2177 296.0412 0001775  58.1141 302.0024 15.08850744 36691,6917.848000000001,95.437,540.94,538.485,0.0
49758.0,STARLINK-3194,PAYLOAD,2022-07-31 12:15:16,15.08844465,0.0001732,53.2175,292.175,50.1743,309.9401,2.8398e-05,1.64e-06,0.0,0 STARLINK-3194,1 49758U 21115AL  22212.51060759  .00000164  00000-0  28398-4 0  9990,2 49758  53.2175 292.1750 0001732  50.1743 309.9401 15.08844465 36827,6917.8669999999975,95.437,540.93,538.534,0.0
49758.0,STARLINK-3194,PAYLOAD,2022-07-31 15:26:02,15.08844753,0.0001745,53.2174,291.5803,50.3786,309.736,3.2832e-05,2.35e-06,0.0,0 STARLINK-3194,1 49758U 21115AL  22212.64308707  .00000235  00000-0  32832-4 0  9999,2 49758  53.2174 291.5803 0001745  50.3786 309.7360 15.08844753 36845,6917.866,95.437,540.938,538.524,0.0
49758.0,STARLINK-3194,PAYLOAD,2022-08-01 12:06:04,15.08832308,0.0001764999999999,53.2174,287.7146,50.0854,310.0293,1.8585e-05,8e-08,0.0,0 STARLINK-3194,1 49758U 21115AL  22213.50421594  .00000008  00000-0  18585-4 0  9992,2 49758  53.2174 287.7146 0001765  50.0854 310.0293 15.08832308 38088,6917.904,95.438,540.99,538.548,0.0
49758.0,STARLINK-3194,PAYLOAD,2022-08-01 13:41:27,15.08832695,0.0001774999999999,53.2175,287.4173,50.0748,310.04,1.9025e-05,1.5e-07,0.0,0 STARLINK-3194,1 49758U 21115AL  22213.57045583  .00000015  00000-0  19025-4 0  9997,2 49758  53.2175 287.4173 0001775  50.0748 310.0400 15.08832695 36985,6917.903,95.438,540.996,538.54,0.0
49758.0,STARLINK-3194,PAYLOAD,2022-08-01 21:38:22,15.08835142,0.0001797,53.2175,285.9304,50.4183,309.6967,2.1181e-05,4.9e-07,0.0,0 STARLINK-3194,1 49758U 21115AL  22213.90165500  .00000049  00000-0  21181-4 0  9999,2 49758  53.2175 285.9304 0001797  50.4183 309.6967 15.08835142 37034,6917.895,95.438,541.003,538.5169999999998,0.0
49758.0,STARLINK-3194,PAYLOAD,2022-08-02 11:56:51,15.08839748,0.0001831999999999,53.2173,283.2541,51.2564,308.8591,2.1327e-05,5.1e-07,0.0,0 STARLINK-3194,1 49758U 21115AL  22214.49781298  .00000051  00000-0  21327-4 0  9997,2 49758  53.2173 283.2541 0001832  51.2564 308.8591 15.08839748 37128,6917.880999999999,95.438,541.014,538.479,0.0
49758.0,STARLINK-3194,PAYLOAD,2022-08-03 11:47:37,15.08840448,0.0001889999999999,53.217,278.7935,51.7776,308.3386,0.00011099,1.479e-05,0.0,0 STARLINK-3194,1 49758U 21115AL  22215.49140965  .00001479  00000-0  11099-3 0  9997,2 49758  53.2170 278.7935 0001890  51.7776 308.3386 15.08840448 37277,6917.879,95.438,541.0509999999998,538.437,0.0
49758.0,STARLINK-3194,PAYLOAD,2022-08-04 03:41:30,15.08830829,0.000192,53.2166,275.8198,53.3637,306.7531,-4.0307e-06,-3.52e-06,0.0,0 STARLINK-3194,1 49758U 21115AL  22216.15382140 -.00000352  00000-0 -40307-5 0  9991,2 49758  53.2166 275.8198 0001920  53.3637 306.7531 15.08830829 38489,6917.908,95.438,541.102,538.445,0.0
49758.0,STARLINK-3194,PAYLOAD,2022-08-04 11:38:25,15.08832196,0.0001896,53.2159,274.3326,50.6301,309.4859,-9.8386e-06,-4.45e-06,0.0,0 STARLINK-3194,1 49758U 21115AL  22216.48502217 -.00000445  00000-0 -98386-5 0  9999,2 49758  53.2159 274.3326 0001896  50.6301 309.4859 15.08832196 37423,6917.904,95.438,541.081,538.4580000000002,0.0
49758.0,STARLINK-3194,PAYLOAD,2022-08-05 09:53:49,15.08838958,0.0001893,53.2162,270.1696,51.2881,308.8281,-3.5557e-06,-3.45e-06,0.0,0 STARLINK-3194,1 49758U 21115AL  22217.41238076 -.00000345  00000-0 -35557-5 0  9992,2 49758  53.2162 270.1696 0001893  51.2881 308.8281 15.08838958 37567,6917.884,95.438,541.058,538.439,0.0
49758.0,STARLINK-3194,PAYLOAD,2022-08-06 09:44:36,15.08839886,0.0001893,53.2162,265.7093,50.7755,309.3405,0.00011759,1.584e-05,0.0,0 STARLINK-3194,1 49758U 21115AL  22218.40597909  .00001584  00000-0  11759-3 0  9995,2 49758  53.2162 265.7093 0001893  50.7755 309.3405 15.08839886 37714,6917.880999999999,95.438,541.055,538.436,0.0
49758.0,STARLINK-3194,PAYLOAD,2022-08-07 03:13:50,15.08845664,0.0001928,53.2161,262.4384,51.2709,308.8455,0.00012283,1.668e-05,0.0,0 STARLINK-3194,1 49758U 21115AL  22219.13461519  .00001668  00000-0  12283-3 0  9999,2 49758  53.2161 262.4384 0001928  51.2709 308.8455 15.08845664 38939,6917.863,95.437,541.062,538.394,0.0
